[{"OBJECT_NAME":"STARLINK-5510","OBJECT_ID":"2023-021V","EPOCH":"2026-03-09T17:57:19.096416","MEAN_MOTION":14.98333238,"ECCENTRICITY":0.00032648,"INCLINATION":70.0015,"RA_OF_ASC_NODE":184.1673,"ARG_OF_PERICENTER":270.0124,"MEAN_ANOMALY":90.0661,"EPHEMERIS_TYPE":0,"CLASSIFICATION_TYPE":"U","NORAD_CAT_ID":55647,"ELEMENT_SET_NO":999,"REV_AT_EPOCH":16880,"BSTAR":1.723613e-5,"MEAN_MOTION_DOT":1.13e-6,"MEAN_MOTION_DDOT":0},{"OBJECT_NAME":"COSMOS 252 DEB","OBJECT_ID":"1968-097DV","EPOCH":"2026-03-09T06:51:51.124896","MEAN_MOTION":13.73038958,"ECCENTRICITY":0.05679066,"INCLINATION":62.4087,"RA_OF_ASC_NODE":319.2034,"ARG_OF_PERICENTER":227.0183,"MEAN_ANOMALY":128.1904,"EPHEMERIS_TYPE":0,"CLASSIFICATION_TYPE":"U","NORAD_CAT_ID":9973,"ELEMENT_SET_NO":999,"REV_AT_EPOCH":1707,"BSTAR":0.00062015301,"MEAN_MOTION_DOT":1.742e-5,"MEAN_MOTION_DDOT":0}]
